<?xml version="1.0" encoding="UTF-8"?>
<ndm xmlns:xsi="http://www.w3.org/2001/XMLSchema-instance" xsi:noNamespaceSchemaLocation="https://sanaregistry.org/r/ndmxml_unqualified/ndmxml-2.0.0-master-2.0.xsd">
<omm id="CCSDS_OMM_VERS" version="2.0">
<header><CREATION_DATE/><ORIGINATOR/></header><body><segment><metadata><OBJECT_NAME>IRIDIUM 171</OBJECT_NAME><OBJECT_ID>2019-002H</OBJECT_ID><CENTER_NAME>EARTH</CENTER_NAME><REF_FRAME>TEME</REF_FRAME><TIME_SYSTEM>UTC</TIME_SYSTEM><MEAN_ELEMENT_THEORY>SGP4</MEAN_ELEMENT_THEORY></metadata><data><meanElements><EPOCH>2023-11-18T06:52:20.694432</EPOCH><MEAN_MOTION>14.34214957</MEAN_MOTION><ECCENTRICITY>.0002318</ECCENTRICITY><INCLINATION>86.4014</INCLINATION><RA_OF_ASC_NODE>27.4192</RA_OF_ASC_NODE><ARG_OF_PERICENTER>93.5259</ARG_OF_PERICENTER><MEAN_ANOMALY>266.6202</MEAN_ANOMALY></meanElements><tleParameters><EPHEMERIS_TYPE>0</EPHEMERIS_TYPE><CLASSIFICATION_TYPE>U</CLASSIFICATION_TYPE><NORAD_CAT_ID>43929</NORAD_CAT_ID><ELEMENT_SET_NO>999</ELEMENT_SET_NO><REV_AT_EPOCH>25395</REV_AT_EPOCH><BSTAR>.10087E-3</BSTAR><MEAN_MOTION_DOT>.302E-5</MEAN_MOTION_DOT><MEAN_MOTION_DDOT>0</MEAN_MOTION_DDOT></tleParameters></data></segment></body></omm>
<omm id="CCSDS_OMM_VERS" version="2.0">
<header><CREATION_DATE/><ORIGINATOR/></header><body><segment><metadata><OBJECT_NAME>IRIDIUM 170</OBJECT_NAME><OBJECT_ID>2019-002J</OBJECT_ID><CENTER_NAME>EARTH</CENTER_NAME><REF_FRAME>TEME</REF_FRAME><TIME_SYSTEM>UTC</TIME_SYSTEM><MEAN_ELEMENT_THEORY>SGP4</MEAN_ELEMENT_THEORY></metadata><data><meanElements><EPOCH>2023-11-18T11:20:26.484864</EPOCH><MEAN_MOTION>14.72264002</MEAN_MOTION><ECCENTRICITY>.0002418</ECCENTRICITY><INCLINATION>86.6132</INCLINATION><RA_OF_ASC_NODE>27.1935</RA_OF_ASC_NODE><ARG_OF_PERICENTER>97.7510</ARG_OF_PERICENTER><MEAN_ANOMALY>262.3981</MEAN_ANOMALY></meanElements><tleParameters><EPHEMERIS_TYPE>0</EPHEMERIS_TYPE><CLASSIFICATION_TYPE>U</CLASSIFICATION_TYPE><NORAD_CAT_ID>43930</NORAD_CAT_ID><ELEMENT_SET_NO>999</ELEMENT_SET_NO><REV_AT_EPOCH>26070</REV_AT_EPOCH><BSTAR>.15555E-3</BSTAR><MEAN_MOTION_DOT>.1006E-4</MEAN_MOTION_DOT><MEAN_MOTION_DDOT>0</MEAN_MOTION_DDOT></tleParameters></data></segment></body></omm>
<omm id="CCSDS_OMM_VERS" version="2.0">
<header><CREATION_DATE/><ORIGINATOR/></header><body><segment><metadata><OBJECT_NAME>IRIDIUM 167</OBJECT_NAME><OBJECT_ID>2019-002K</OBJECT_ID><CENTER_NAME>EARTH</CENTER_NAME><REF_FRAME>TEME</REF_FRAME><TIME_SYSTEM>UTC</TIME_SYSTEM><MEAN_ELEMENT_THEORY>SGP4</MEAN_ELEMENT_THEORY></metadata><data><meanElements><EPOCH>2023-11-18T21:47:23.136288</EPOCH><MEAN_MOTION>14.34217720</MEAN_MOTION><ECCENTRICITY>.0002297</ECCENTRICITY><INCLINATION>86.4004</INCLINATION><RA_OF_ASC_NODE>26.9717</RA_OF_ASC_NODE><ARG_OF_PERICENTER>95.7205</ARG_OF_PERICENTER><MEAN_ANOMALY>264.4253</MEAN_ANOMALY></meanElements><tleParameters><EPHEMERIS_TYPE>0</EPHEMERIS_TYPE><CLASSIFICATION_TYPE>U</CLASSIFICATION_TYPE><NORAD_CAT_ID>43931</NORAD_CAT_ID><ELEMENT_SET_NO>999</ELEMENT_SET_NO><REV_AT_EPOCH>25404</REV_AT_EPOCH><BSTAR>.71434E-4</BSTAR><MEAN_MOTION_DOT>.22E-5</MEAN_MOTION_DOT><MEAN_MOTION_DDOT>0</MEAN_MOTION_DDOT></tleParameters></data></segment></body></omm>
<omm id="CCSDS_OMM_VERS" version="2.0">
<header><CREATION_DATE/><ORIGINATOR/></header><body><segment><metadata><OBJECT_NAME>IRIDIUM 181</OBJECT_NAME><OBJECT_ID>2023-068S</OBJECT_ID><CENTER_NAME>EARTH</CENTER_NAME><REF_FRAME>TEME</REF_FRAME><TIME_SYSTEM>UTC</TIME_SYSTEM><MEAN_ELEMENT_THEORY>SGP4</MEAN_ELEMENT_THEORY></metadata><data><meanElements><EPOCH>2023-11-18T13:16:13.557216</EPOCH><MEAN_MOTION>14.43578985</MEAN_MOTION><ECCENTRICITY>.0003244</ECCENTRICITY><INCLINATION>86.8634</INCLINATION><RA_OF_ASC_NODE>70.5809</RA_OF_ASC_NODE><ARG_OF_PERICENTER>98.2769</ARG_OF_PERICENTER><MEAN_ANOMALY>261.8801</MEAN_ANOMALY></meanElements><tleParameters><EPHEMERIS_TYPE>0</EPHEMERIS_TYPE><CLASSIFICATION_TYPE>U</CLASSIFICATION_TYPE><NORAD_CAT_ID>56726</NORAD_CAT_ID><ELEMENT_SET_NO>999</ELEMENT_SET_NO><REV_AT_EPOCH>2660</REV_AT_EPOCH><BSTAR>.13266E-3</BSTAR><MEAN_MOTION_DOT>.469E-5</MEAN_MOTION_DOT><MEAN_MOTION_DDOT>0</MEAN_MOTION_DDOT></tleParameters></data></segment></body></omm>
<omm id="CCSDS_OMM_VERS" version="2.0">
<header><CREATION_DATE/><ORIGINATOR/></header><body><segment><metadata><OBJECT_NAME>IRIDIUM 177</OBJECT_NAME><OBJECT_ID>2023-068T</OBJECT_ID><CENTER_NAME>EARTH</CENTER_NAME><REF_FRAME>TEME</REF_FRAME><TIME_SYSTEM>UTC</TIME_SYSTEM><MEAN_ELEMENT_THEORY>SGP4</MEAN_ELEMENT_THEORY></metadata><data><meanElements><EPOCH>2023-11-18T16:47:35.710368</EPOCH><MEAN_MOTION>14.80225029</MEAN_MOTION><ECCENTRICITY>.0002138</ECCENTRICITY><INCLINATION>86.1995</INCLINATION><RA_OF_ASC_NODE>55.7543</RA_OF_ASC_NODE><ARG_OF_PERICENTER>92.2254</ARG_OF_PERICENTER><MEAN_ANOMALY>267.9212</MEAN_ANOMALY></meanElements><tleParameters><EPHEMERIS_TYPE>0</EPHEMERIS_TYPE><CLASSIFICATION_TYPE>U</CLASSIFICATION_TYPE><NORAD_CAT_ID>56727</NORAD_CAT_ID><ELEMENT_SET_NO>999</ELEMENT_SET_NO><REV_AT_EPOCH>2709</REV_AT_EPOCH><BSTAR>.21015E-3</BSTAR><MEAN_MOTION_DOT>.1623E-4</MEAN_MOTION_DOT><MEAN_MOTION_DDOT>0</MEAN_MOTION_DDOT></tleParameters></data></segment></body></omm>
<omm id="CCSDS_OMM_VERS" version="2.0">
<header><CREATION_DATE/><ORIGINATOR/></header><body><segment><metadata><OBJECT_NAME>IRIDIUM 174</OBJECT_NAME><OBJECT_ID>2023-068U</OBJECT_ID><CENTER_NAME>EARTH</CENTER_NAME><REF_FRAME>TEME</REF_FRAME><TIME_SYSTEM>UTC</TIME_SYSTEM><MEAN_ELEMENT_THEORY>SGP4</MEAN_ELEMENT_THEORY></metadata><data><meanElements><EPOCH>2023-11-18T16:39:45.730656</EPOCH><MEAN_MOTION>14.80229473</MEAN_MOTION><ECCENTRICITY>.0002001</ECCENTRICITY><INCLINATION>86.2003</INCLINATION><RA_OF_ASC_NODE>55.8435</RA_OF_ASC_NODE><ARG_OF_PERICENTER>98.2352</ARG_OF_PERICENTER><MEAN_ANOMALY>261.9096</MEAN_ANOMALY></meanElements><tleParameters><EPHEMERIS_TYPE>0</EPHEMERIS_TYPE><CLASSIFICATION_TYPE>U</CLASSIFICATION_TYPE><NORAD_CAT_ID>56728</NORAD_CAT_ID><ELEMENT_SET_NO>999</ELEMENT_SET_NO><REV_AT_EPOCH>2709</REV_AT_EPOCH><BSTAR>.21039E-3</BSTAR><MEAN_MOTION_DOT>.1625E-4</MEAN_MOTION_DOT><MEAN_MOTION_DDOT>0</MEAN_MOTION_DDOT></tleParameters></data></segment></body></omm>
<omm id="CCSDS_OMM_VERS" version="2.0">
<header><CREATION_DATE/><ORIGINATOR/></header><body><segment><metadata><OBJECT_NAME>IRIDIUM 178</OBJECT_NAME><OBJECT_ID>2023-068V</OBJECT_ID><CENTER_NAME>EARTH</CENTER_NAME><REF_FRAME>TEME</REF_FRAME><TIME_SYSTEM>UTC</TIME_SYSTEM><MEAN_ELEMENT_THEORY>SGP4</MEAN_ELEMENT_THEORY></metadata><data><meanElements><EPOCH>2023-11-18T13:17:23.526528</EPOCH><MEAN_MOTION>14.80231116</MEAN_MOTION><ECCENTRICITY>.0002136</ECCENTRICITY><INCLINATION>86.5794</INCLINATION><RA_OF_ASC_NODE>63.3431</RA_OF_ASC_NODE><ARG_OF_PERICENTER>90.7358</ARG_OF_PERICENTER><MEAN_ANOMALY>269.4108</MEAN_ANOMALY></meanElements><tleParameters><EPHEMERIS_TYPE>0</EPHEMERIS_TYPE><CLASSIFICATION_TYPE>U</CLASSIFICATION_TYPE><NORAD_CAT_ID>56729</NORAD_CAT_ID><ELEMENT_SET_NO>999</ELEMENT_SET_NO><REV_AT_EPOCH>2707</REV_AT_EPOCH><BSTAR>.21312E-3</BSTAR><MEAN_MOTION_DOT>.1645E-4</MEAN_MOTION_DOT><MEAN_MOTION_DDOT>0</MEAN_MOTION_DDOT></tleParameters></data></segment></body></omm>
<omm id="CCSDS_OMM_VERS" version="2.0">
<header><CREATION_DATE/><ORIGINATOR/></header><body><segment><metadata><OBJECT_NAME>IRIDIUM 179</OBJECT_NAME><OBJECT_ID>2023-068W</OBJECT_ID><CENTER_NAME>EARTH</CENTER_NAME><REF_FRAME>TEME</REF_FRAME><TIME_SYSTEM>UTC</TIME_SYSTEM><MEAN_ELEMENT_THEORY>SGP4</MEAN_ELEMENT_THEORY></metadata><data><meanElements><EPOCH>2023-11-18T13:09:32.745024</EPOCH><MEAN_MOTION>14.80233816</MEAN_MOTION><ECCENTRICITY>.0001936</ECCENTRICITY><INCLINATION>86.6802</INCLINATION><RA_OF_ASC_NODE>64.8141</RA_OF_ASC_NODE><ARG_OF_PERICENTER>99.1993</ARG_OF_PERICENTER><MEAN_ANOMALY>260.9447</MEAN_ANOMALY></meanElements><tleParameters><EPHEMERIS_TYPE>0</EPHEMERIS_TYPE><CLASSIFICATION_TYPE>U</CLASSIFICATION_TYPE><NORAD_CAT_ID>56730</NORAD_CAT_ID><ELEMENT_SET_NO>999</ELEMENT_SET_NO><REV_AT_EPOCH>2707</REV_AT_EPOCH><BSTAR>.21181E-3</BSTAR><MEAN_MOTION_DOT>.1635E-4</MEAN_MOTION_DOT><MEAN_MOTION_DDOT>0</MEAN_MOTION_DDOT></tleParameters></data></segment></body></omm>
</ndm>
