IRIDIUM 171             
1 43929U 19002H   23322.28635063  .00000302  00000+0  10087-3 0  9997
2 43929  86.4014  27.4192 0002318  93.5259 266.6202 14.34214957253952
IRIDIUM 170             
1 43930U 19002J   23322.47252876  .00001006  00000+0  15555-3 0  9994
2 43930  86.6132  27.1935 0002418  97.7510 262.3981 14.72264002260702
IRIDIUM 167             
1 43931U 19002K   23322.90790667  .00000220  00000+0  71434-4 0  9994
2 43931  86.4004  26.9717 0002297  95.7205 264.4253 14.34217720254046
IRIDIUM 181             
1 56726U 23068S   23322.55293469  .00000469  00000+0  13266-3 0  9999
2 56726  86.8634  70.5809 0003244  98.2769 261.8801 14.43578985 26600
IRIDIUM 177             
1 56727U 23068T   23322.69971887  .00001623  00000+0  21015-3 0  9996
2 56727  86.1995  55.7543 0002138  92.2254 267.9212 14.80225029 27094
IRIDIUM 174             
1 56728U 23068U   23322.69427929  .00001625  00000+0  21039-3 0  9998
2 56728  86.2003  55.8435 0002001  98.2352 261.9096 14.80229473 27092
IRIDIUM 178             
1 56729U 23068V   23322.55374452  .00001645  00000+0  21312-3 0  9992
2 56729  86.5794  63.3431 0002136  90.7358 269.4108 14.80231116 27077
IRIDIUM 179             
1 56730U 23068W   23322.54829566  .00001635  00000+0  21181-3 0  9997
2 56730  86.6802  64.8141 0001936  99.1993 260.9447 14.80233816 27070
